{"fetched_at":"2026-04-18T20:36:13Z","count":2652,"tles":[{"name":"STARLINK-37179","line1":"1 68618U 26073S   26106.92256953  .00019597  00000+0  10271-3 0  9997","line2":"2 68618  97.2848 304.5595 0001596  78.7888 281.3560 15.80839578  1579","category":"Starlink"}]}