{
  "norad_id": 68618,
  "name": "STARLINK-37179",
  "history": [
    {
      "epoch": "2026-04-16T22:08:30.007392Z",
      "apogee_km": 329.13607121323184,
      "perigee_km": 326.99424436807567,
      "latitude_deg": 3.8982579431258115e-05,
      "longitude_deg": 127.37113986529683,
      "height_km": 331.0302778377327,
      "semi_major_axis_km": 6706.2021577906535,
      "eccentricity": 0.00015969,
      "inclination_deg": 97.2848,
      "raan_deg": 304.5595,
      "arg_perigee_deg": 78.7888,
      "mean_anomaly_deg": 281.356,
      "mean_motion_rev_day": 15.80839578
    }
  ]
}